[{"OBJECT_NAME":"QIANKUN-1","OBJECT_ID":"2023-103B","EPOCH":"2026-03-05T12:49:33.234816","MEAN_MOTION":16.08514637,"ECCENTRICITY":0.0030783,"INCLINATION":96.1968,"RA_OF_ASC_NODE":116.327,"ARG_OF_PERICENTER":170.3202,"MEAN_ANOMALY":189.8684,"EPHEMERIS_TYPE":0,"CLASSIFICATION_TYPE":"U","NORAD_CAT_ID":57422,"ELEMENT_SET_NO":999,"REV_AT_EPOCH":15064,"BSTAR":5.663e-7,"MEAN_MOTION_DOT":-2.1e-7,"MEAN_MOTION_DDOT":1.6855e-6},{"OBJECT_NAME":"OBJECT B","OBJECT_ID":"2023-104B","EPOCH":"2026-03-05T20:18:03.568032","MEAN_MOTION":15.94371541,"ECCENTRICITY":0.0002831,"INCLINATION":97.2683,"RA_OF_ASC_NODE":153.3564,"ARG_OF_PERICENTER":313.0193,"MEAN_ANOMALY":47.0845,"EPHEMERIS_TYPE":0,"CLASSIFICATION_TYPE":"U","NORAD_CAT_ID":57425,"ELEMENT_SET_NO":999,"REV_AT_EPOCH":14746,"BSTAR":0.00081815,"MEAN_MOTION_DOT":0.00304122,"MEAN_MOTION_DDOT":3.7841e-5},{"OBJECT_NAME":"INTUITION-1","OBJECT_ID":"2023-174CW","EPOCH":"2026-03-05T16:47:21.145920","MEAN_MOTION":15.91927054,"ECCENTRICITY":0.0003593,"INCLINATION":97.3761,"RA_OF_ASC_NODE":160.7517,"ARG_OF_PERICENTER":235.1056,"MEAN_ANOMALY":124.988,"EPHEMERIS_TYPE":0,"CLASSIFICATION_TYPE":"U","NORAD_CAT_ID":58565,"ELEMENT_SET_NO":999,"REV_AT_EPOCH":13024,"BSTAR":0.0012972,"MEAN_MOTION_DOT":0.00424677,"MEAN_MOTION_DDOT":7.1211e-5},{"OBJECT_NAME":"OBJECT B","OBJECT_ID":"2024-085B","EPOCH":"2026-03-05T20:45:39.641760","MEAN_MOTION":15.95269528,"ECCENTRICITY":0.0009579,"INCLINATION":97.3363,"RA_OF_ASC_NODE":156.9341,"ARG_OF_PERICENTER":297.4826,"MEAN_ANOMALY":62.5475,"EPHEMERIS_TYPE":0,"CLASSIFICATION_TYPE":"U","NORAD_CAT_ID":59678,"ELEMENT_SET_NO":999,"REV_AT_EPOCH":10280,"BSTAR":0.0012698,"MEAN_MOTION_DOT":0.00497173,"MEAN_MOTION_DDOT":0.00010252},{"OBJECT_NAME":"OBJECT D","OBJECT_ID":"2024-095D","EPOCH":"2026-03-05T01:21:24.857280","MEAN_MOTION":15.92155338,"ECCENTRICITY":0.00052609,"INCLINATION":97.5303,"RA_OF_ASC_NODE":167.7716,"ARG_OF_PERICENTER":254.9341,"MEAN_ANOMALY":105.1351,"EPHEMERIS_TYPE":0,"CLASSIFICATION_TYPE":"U","NORAD_CAT_ID":59813,"ELEMENT_SET_NO":999,"REV_AT_EPOCH":10015,"BSTAR":0.001780105,"MEAN_MOTION_DOT":0.00589793,"MEAN_MOTION_DDOT":0.0001403731},{"OBJECT_NAME":"RUZAEVKA 390 (RS44S)","OBJECT_ID":"2024-199AH","EPOCH":"2026-03-05T14:56:17.760192","MEAN_MOTION":16.0700319,"ECCENTRICITY":0.0002325,"INCLINATION":97.2824,"RA_OF_ASC_NODE":306.6771,"ARG_OF_PERICENTER":168.4969,"MEAN_ANOMALY":191.6367,"EPHEMERIS_TYPE":0,"CLASSIFICATION_TYPE":"U","NORAD_CAT_ID":61766,"ELEMENT_SET_NO":999,"REV_AT_EPOCH":11887,"BSTAR":0.0017129,"MEAN_MOTION_DOT":0.012924,"MEAN_MOTION_DDOT":0.0010258},{"OBJECT_NAME":"SZ-19 DEB","OBJECT_ID":"2024-194E","EPOCH":"2026-03-05T18:11:50.099136","MEAN_MOTION":16.16165938,"ECCENTRICITY":0.0011843,"INCLINATION":41.4587,"RA_OF_ASC_NODE":186.5293,"ARG_OF_PERICENTER":18.407,"MEAN_ANOMALY":341.7215,"EPHEMERIS_TYPE":0,"CLASSIFICATION_TYPE":"U","NORAD_CAT_ID":63801,"ELEMENT_SET_NO":999,"REV_AT_EPOCH":4858,"BSTAR":0.00046832,"MEAN_MOTION_DOT":0.00715132,"MEAN_MOTION_DDOT":0.00031182},{"OBJECT_NAME":"COSMOS 2591","OBJECT_ID":"2025-182A","EPOCH":"2026-03-05T17:44:49.431264","MEAN_MOTION":15.9640134,"ECCENTRICITY":0.0007944,"INCLINATION":96.5938,"RA_OF_ASC_NODE":358.0582,"ARG_OF_PERICENTER":172.1859,"MEAN_ANOMALY":187.9545,"EPHEMERIS_TYPE":0,"CLASSIFICATION_TYPE":"U","NORAD_CAT_ID":65267,"ELEMENT_SET_NO":999,"REV_AT_EPOCH":3119,"BSTAR":0.00018326,"MEAN_MOTION_DOT":0.00075753,"MEAN_MOTION_DDOT":4.043e-6},{"OBJECT_NAME":"COSMOS 2592","OBJECT_ID":"2025-182B","EPOCH":"2026-03-05T15:06:51.282144","MEAN_MOTION":15.96382533,"ECCENTRICITY":0.000717,"INCLINATION":96.5906,"RA_OF_ASC_NODE":357.9096,"ARG_OF_PERICENTER":168.5536,"MEAN_ANOMALY":191.5907,"EPHEMERIS_TYPE":0,"CLASSIFICATION_TYPE":"U","NORAD_CAT_ID":65268,"ELEMENT_SET_NO":999,"REV_AT_EPOCH":3117,"BSTAR":1.1848e-5,"MEAN_MOTION_DOT":4.342e-5,"MEAN_MOTION_DDOT":1.8609e-6},{"OBJECT_NAME":"COSMOS 2593","OBJECT_ID":"2025-182C","EPOCH":"2026-03-05T13:59:10.158144","MEAN_MOTION":15.96412483,"ECCENTRICITY":0.0007309,"INCLINATION":96.5882,"RA_OF_ASC_NODE":357.8369,"ARG_OF_PERICENTER":166.2302,"MEAN_ANOMALY":193.9177,"EPHEMERIS_TYPE":0,"CLASSIFICATION_TYPE":"U","NORAD_CAT_ID":65269,"ELEMENT_SET_NO":999,"REV_AT_EPOCH":3116,"BSTAR":5.8016e-5,"MEAN_MOTION_DOT":0.00023585,"MEAN_MOTION_DDOT":2.0678e-6},{"OBJECT_NAME":"COSMOS 2594","OBJECT_ID":"2025-182D","EPOCH":"2026-03-05T14:21:44.746848","MEAN_MOTION":15.9639362,"ECCENTRICITY":0.0007039,"INCLINATION":96.5907,"RA_OF_ASC_NODE":357.8208,"ARG_OF_PERICENTER":167.7756,"MEAN_ANOMALY":192.3695,"EPHEMERIS_TYPE":0,"CLASSIFICATION_TYPE":"U","NORAD_CAT_ID":65270,"ELEMENT_SET_NO":999,"REV_AT_EPOCH":3118,"BSTAR":0.00024191,"MEAN_MOTION_DOT":0.00100071,"MEAN_MOTION_DDOT":5.6759e-6},{"OBJECT_NAME":"ISS OBJECT XK","OBJECT_ID":"1998-067XK","EPOCH":"2026-03-05T10:08:56.907168","MEAN_MOTION":16.09887648,"ECCENTRICITY":0.0004832,"INCLINATION":51.6145,"RA_OF_ASC_NODE":68.9863,"ARG_OF_PERICENTER":74.1567,"MEAN_ANOMALY":285.9979,"EPHEMERIS_TYPE":0,"CLASSIFICATION_TYPE":"U","NORAD_CAT_ID":65731,"ELEMENT_SET_NO":999,"REV_AT_EPOCH":2621,"BSTAR":0.0012997,"MEAN_MOTION_DOT":0.0123534,"MEAN_MOTION_DDOT":0.00097089},{"OBJECT_NAME":"CZ-4B R/B","OBJECT_ID":"2025-289B","EPOCH":"2026-03-05T23:05:32.327808","MEAN_MOTION":16.43970789,"ECCENTRICITY":0.001156,"INCLINATION":97.4934,"RA_OF_ASC_NODE":143.5577,"ARG_OF_PERICENTER":28.3521,"MEAN_ANOMALY":331.8407,"EPHEMERIS_TYPE":0,"CLASSIFICATION_TYPE":"U","NORAD_CAT_ID":66989,"ELEMENT_SET_NO":999,"REV_AT_EPOCH":1375,"BSTAR":0.00024635,"MEAN_MOTION_DOT":0.07886932,"MEAN_MOTION_DDOT":2.5754e-6},{"OBJECT_NAME":"STARLINK-36618","OBJECT_ID":"2026-033AC","EPOCH":"2026-03-05T20:00:00.999360","MEAN_MOTION":15.92801883,"ECCENTRICITY":0.0001972,"INCLINATION":42.9844,"RA_OF_ASC_NODE":293.02,"ARG_OF_PERICENTER":275.4205,"MEAN_ANOMALY":152.8762,"EPHEMERIS_TYPE":0,"CLASSIFICATION_TYPE":"U","NORAD_CAT_ID":67847,"ELEMENT_SET_NO":999,"REV_AT_EPOCH":404,"BSTAR":-0.0036871,"MEAN_MOTION_DOT":-0.01320484,"MEAN_MOTION_DDOT":0.00050625},{"OBJECT_NAME":"STARLINK-36818","OBJECT_ID":"2026-035A","EPOCH":"2026-03-05T20:00:00.999360","MEAN_MOTION":15.96036177,"ECCENTRICITY":0.0001209,"INCLINATION":97.2762,"RA_OF_ASC_NODE":356.8734,"ARG_OF_PERICENTER":95.3751,"MEAN_ANOMALY":322.4268,"EPHEMERIS_TYPE":0,"CLASSIFICATION_TYPE":"U","NORAD_CAT_ID":67879,"ELEMENT_SET_NO":999,"REV_AT_EPOCH":313,"BSTAR":-0.0025127,"MEAN_MOTION_DOT":-0.01019817,"MEAN_MOTION_DDOT":0.00032549},{"OBJECT_NAME":"STARLINK-36821","OBJECT_ID":"2026-035B","EPOCH":"2026-03-05T20:00:00.999360","MEAN_MOTION":15.96181572,"ECCENTRICITY":0.0001191,"INCLINATION":97.2757,"RA_OF_ASC_NODE":356.8767,"ARG_OF_PERICENTER":93.2349,"MEAN_ANOMALY":331.6789,"EPHEMERIS_TYPE":0,"CLASSIFICATION_TYPE":"U","NORAD_CAT_ID":67880,"ELEMENT_SET_NO":999,"REV_AT_EPOCH":313,"BSTAR":-0.0024972,"MEAN_MOTION_DOT":-0.01021448,"MEAN_MOTION_DDOT":0.00032696}]
