QIANKUN-1               
1 57422U 23103B   26064.53441244 -.00000021  16855-5  56630-6 0  9994
2 57422  96.1968 116.3270 0030783 170.3202 189.8684 16.08514637150648
OBJECT B                
1 57425U 23104B   26064.84587463  .00304122  37841-4  81815-3 0  9991
2 57425  97.2683 153.3564 0002831 313.0193  47.0845 15.94371541147461
INTUITION-1             
1 58565U 23174CW  26064.69955030  .00424677  71211-4  12972-2 0  9990
2 58565  97.3761 160.7517 0003593 235.1056 124.9880 15.91927054130248
OBJECT B                
1 59678U 24085B   26064.86504215  .00497173  10252-3  12698-2 0  9995
2 59678  97.3363 156.9341 0009579 297.4826  62.5475 15.95269528102807
OBJECT D                
1 59813U 24095D   26064.05653770  .00589793  14037-3  17801-2 0  9995
2 59813  97.5303 167.7716 0005260 254.9341 105.1351 15.92155338100156
RUZAEVKA 390 (RS44S)    
1 61766U 24199AH  26064.62242778  .01292400  10258-2  17129-2 0  9995
2 61766  97.2824 306.6771 0002325 168.4969 191.6367 16.07003190118870
SZ-19 DEB               
1 63801U 24194E   26064.75821874  .00715132  31182-3  46832-3 0  9991
2 63801  41.4587 186.5293 0011843  18.4070 341.7215 16.16165938 48584
COSMOS 2591             
1 65267U 25182A   26064.73946101  .00075753  40430-5  18326-3 0  9999
2 65267  96.5938 358.0582 0007944 172.1859 187.9545 15.96401340 31192
COSMOS 2592             
1 65268U 25182B   26064.62976021  .00004342  18609-5  11848-4 0  9994
2 65268  96.5906 357.9096 0007170 168.5536 191.5907 15.96382533 31171
COSMOS 2593             
1 65269U 25182C   26064.58275646  .00023585  20678-5  58016-4 0  9992
2 65269  96.5882 357.8369 0007309 166.2302 193.9177 15.96412483 31169
COSMOS 2594             
1 65270U 25182D   26064.59843457  .00100071  56759-5  24191-3 0  9997
2 65270  96.5907 357.8208 0007039 167.7756 192.3695 15.96393620 31181
ISS OBJECT XK           
1 65731U 98067XK  26064.42288087  .01235340  97089-3  12997-2 0  9993
2 65731  51.6145  68.9863 0004832  74.1567 285.9979 16.09887648 26210
CZ-4B R/B               
1 66989U 25289B   26064.96217972  .07886932  25754-5  24635-3 0  9999
2 66989  97.4934 143.5577 0011560  28.3521 331.8407 16.43970789 13758
STARLINK-36618          
1 67847U 26033AC  26064.83334490 -.01320484  50625-3 -36871-2 0  9990
2 67847  42.9844 293.0200 0001972 275.4205 152.8762 15.92801883  4049
STARLINK-36818          
1 67879U 26035A   26064.83334490 -.01019817  32549-3 -25127-2 0  9999
2 67879  97.2762 356.8734 0001209  95.3751 322.4268 15.96036177  3139
STARLINK-36821          
1 67880U 26035B   26064.83334490 -.01021448  32696-3 -24972-2 0  9994
2 67880  97.2757 356.8767 0001191  93.2349 331.6789 15.96181572  3131
